{"type":"FeatureCollection","features":[{"type":"Feature","properties":{"hazard":"nws-alert","severity":"Minor","tone":"info","event":"Marine Weather Statement","unit_code":"CANA","unit_name":"Canaveral National Seashore","alert_id":"urn:oid:2.49.0.1.840.0.a20fbc75d37b61a4c9c1e5b07b047aa089aa8765.001.1","acres_affected":25274.1},"geometry":{"type":"Polygon","coordinates":[[[-80.74441519028134,28.725415079739793],[-80.7576159058908,28.7399001683268],[-80.7693403266663,28.750190031501],[-80.80256278656573,28.787688359697192],[-80.82,28.84],[-80.77850421817539,28.87720311473931],[-80.6989849472586,28.75499864151],[-80.68290442255913,28.734775413958392],[-80.74441519028134,28.725415079739793]]]}},{"type":"Feature","properties":{"hazard":"nws-alert","severity":"Severe","tone":"elevated","event":"Flash Flood Warning","unit_code":"HONO","unit_name":"Honouliuli National Historic Site","alert_id":"urn:oid:2.49.0.1.840.0.4c23a951f677b46e37da37b202984e8e20f453a5.001.1","acres_affected":162.2},"geometry":{"type":"Polygon","coordinates":[[[-158.058337717923,21.3880680839108],[-158.060635530815,21.3897689688324],[-158.062456823648,21.3972583043912],[-158.057639591847,21.3959238364183],[-158.059130374844,21.3918743196852],[-158.055625379008,21.3893691547993],[-158.054750239073,21.386941084939],[-158.056307953026,21.3860715190105],[-158.054702471075,21.3869089739404],[-158.053638881136,21.3853396440249],[-158.054753251154,21.3808009933175],[-158.050280358371,21.3771001534938],[-158.057807055021,21.3821679552685],[-158.058337717923,21.3880680839108]]]}},{"type":"Feature","properties":{"hazard":"nws-alert","severity":"Severe","tone":"elevated","event":"Flash Flood Warning","unit_code":"PERL","unit_name":"Pearl Harbor National Memorial","alert_id":"urn:oid:2.49.0.1.840.0.4c23a951f677b46e37da37b202984e8e20f453a5.001.1","acres_affected":18.7},"geometry":{"type":"MultiPolygon","coordinates":[[[[-157.955453840087,21.3637029942166],[-157.95463104212,21.3635265672178],[-157.954760790118,21.363318744232],[-157.955453840087,21.3637029942166]]],[[[-157.952285088206,21.3636082701856],[-157.952201572209,21.3635984311852],[-157.952286823207,21.3635014941922],[-157.952285088206,21.3636082701856]]],[[[-157.954356913127,21.3637630442002],[-157.952779959181,21.3640863221622],[-157.952812871191,21.3632633182128],[-157.954356913127,21.3637630442002]]],[[[-157.95174725422,21.3640111931547],[-157.951629378224,21.3640445461513],[-157.951629401225,21.3639954621544],[-157.95174725422,21.3640111931547]]],[[[-157.95067008025,21.3648201340929],[-157.950586563253,21.3648102940925],[-157.950595913253,21.364771143095],[-157.95067008025,21.3648201340929]]],[[[-157.950096056265,21.36524909506],[-157.950012538268,21.3652392550596],[-157.950097791267,21.3651423190666],[-157.950096056265,21.36524909506]]],[[[-157.962077836773,21.3688890729766],[-157.961927997781,21.3687128549856],[-157.962069032774,21.3688381429796],[-157.962077836773,21.3688890729766]]],[[[-157.949805964285,21.3646022960962],[-157.950111836266,21.3651131250685],[-157.94963741529,21.3646500550913],[-157.949805964285,21.3646022960962]]],[[[-157.937377504732,21.3655237108957],[-157.937872979711,21.3657601808871],[-157.937697224709,21.3663877098467],[-157.937377504732,21.3655237108957]]],[[[-157.949074522294,21.3659167330074],[-157.949115006293,21.3659225440075],[-157.949059217293,21.3660331710001],[-157.949074522294,21.3659167330074]]],[[[-157.94849967231,21.3663503199743],[-157.948540156308,21.3663561309744],[-157.948484366309,21.366466757967],[-157.94849967231,21.3663503199743]]],[[[-157.937566479711,21.3665880578331],[-157.937401519708,21.36726126679],[-157.936596832739,21.3672020827843],[-157.937566479711,21.3665880578331]]],[[[-157.937961233707,21.365778390887],[-157.940090510618,21.3665961238618],[-157.937780651667,21.3693247726686],[-157.936936700702,21.3690329266766],[-157.937961233707,21.365778390887]],[[-157.937990058678,21.3679575867544],[-157.93768036969,21.3678659997564],[-157.93762959269,21.3680504937446],[-157.937990058678,21.3679575867544]]]]}},{"type":"Feature","properties":{"hazard":"nws-alert","severity":"Severe","tone":"elevated","event":"Flash Flood Warning","unit_code":"TIMU","unit_name":"Timucuan Ecological and Historic Preserve","alert_id":"urn:oid:2.49.0.1.840.0.ce207b53fed765ce4c113eee878122a55d6e0fe8.001.1","acres_affected":1262.1},"geometry":{"type":"MultiPolygon","coordinates":[[[[-81.49,30.54],[-81.51,30.56],[-81.52,30.55],[-81.52106395260226,30.55017732543371],[-81.5219259316001,30.554255222889],[-81.5210618276021,30.5606865614103],[-81.5175502717736,30.5656608066712],[-81.5123049643052,30.5672571171978],[-81.4964313164608,30.5619696084382],[-81.4919319259306,30.5564978662986],[-81.48423001181426,30.539278751476783],[-81.49,30.54]]],[[[-81.58569964504137,30.565699645041377],[-81.5840789311918,30.5655910136826],[-81.58382675308866,30.56382675308865],[-81.58569964504137,30.565699645041377]]],[[[-81.6,30.56],[-81.6029831868717,30.56],[-81.59682998368797,30.56317001631203],[-81.6,30.56]]],[[[-81.601504069309,30.56849593069099],[-81.6012590212984,30.5679352047176],[-81.60255735779776,30.567442642202227],[-81.601504069309,30.56849593069099]]],[[[-81.61,30.58],[-81.61,30.583781725996932],[-81.6080863789825,30.5853753485673],[-81.6042897998528,30.5848268665527],[-81.60896599095021,30.57896599095021],[-81.61,30.58]]],[[[-81.62,30.58],[-81.62580624262085,30.585806242620848],[-81.6246703028587,30.5863062542908],[-81.6191401830595,30.5816317583692],[-81.61851599158769,30.581484008412318],[-81.62,30.58]]],[[[-81.65,30.57],[-81.65501625844674,30.571003251689344],[-81.65063802789,30.5725784063302],[-81.6497196387878,30.5767534143273],[-81.6455630485396,30.5758571992427],[-81.6427773648977,30.5801597613248],[-81.64056636956958,30.57943363043042],[-81.65,30.57]]],[[[-81.4463815522913,30.5733202515604],[-81.4449122978686,30.5734867876427],[-81.4458577469988,30.5697905237548],[-81.4463815522913,30.5733202515604]]]]}},{"type":"Feature","properties":{"hazard":"nws-alert","severity":"Severe","tone":"elevated","event":"Tropical Storm Watch","unit_code":"ANDE","unit_name":"Andersonville National Historic Site","alert_id":"urn:oid:2.49.0.1.840.0.83e252f2512cfd020850ca30294173273700a0bc.006.1","acres_affected":437.7},"geometry":{"type":"MultiPolygon","coordinates":[[[[-84.134,32.20612328779384],[-84.1317720946755,32.2061578567337],[-84.1252654908953,32.2081272263908],[-84.1253343317583,32.2047995776526],[-84.1237525603015,32.2047683426996],[-84.1242553987377,32.1897192003543],[-84.134,32.18963523699383],[-84.134,32.20612328779384]]],[[[-84.1302524672709,32.2068533879393],[-84.1303074792928,32.206982632966],[-84.1281283616971,32.2076533861885],[-84.1302524672709,32.2068533879393]]]]}},{"type":"Feature","properties":{"hazard":"nws-alert","severity":"Severe","tone":"elevated","event":"Tropical Storm Watch","unit_code":"ANDE","unit_name":"Andersonville National Historic Site","alert_id":"urn:oid:2.49.0.1.840.0.83e252f2512cfd020850ca30294173273700a0bc.007.1","acres_affected":72.2},"geometry":{"type":"Polygon","coordinates":[[[-84.134,32.18963523699383],[-84.1348823897923,32.1896276339724],[-84.1353713934539,32.2006907844023],[-84.1375322700742,32.2006541483206],[-84.1361891259437,32.2060893205681],[-84.134,32.20612328779384],[-84.134,32.18963523699383]]]}},{"type":"Feature","properties":{"hazard":"nws-alert","severity":"Severe","tone":"elevated","event":"Tropical Storm Watch","unit_code":"JICA","unit_name":"Jimmy Carter National Historic Site","alert_id":"urn:oid:2.49.0.1.840.0.83e252f2512cfd020850ca30294173273700a0bc.007.1","acres_affected":43.1},"geometry":{"type":"MultiPolygon","coordinates":[[[[-84.4314919083154,32.024825035434],[-84.4321171395066,32.0250758054684],[-84.4240355222638,32.026718382106],[-84.4314919083154,32.024825035434]]],[[[-84.4282926724693,32.0263687298842],[-84.4242716703528,32.0271730261986],[-84.4251951186014,32.0268213140894],[-84.4282926724693,32.0263687298842]]],[[[-84.4342577661874,32.0264964987101],[-84.4283847014812,32.026056930812],[-84.4325988636581,32.0253590425147],[-84.4371554130895,32.0280044779455],[-84.4342577661874,32.0264964987101]]],[[[-84.4243408883867,32.027474758263],[-84.4138243496398,32.0332921269071],[-84.4138097776207,32.032973157837],[-84.4243408883867,32.027474758263]]],[[[-84.3948487211855,32.0331492635191],[-84.3948910292032,32.033268065544],[-84.3940446259712,32.0335046736251],[-84.3948487211855,32.0331492635191]]],[[[-84.4239058132444,32.0271024381953],[-84.4109070008347,32.0339837111591],[-84.4209619144581,32.0283588495732],[-84.4239058132444,32.0271024381953]]],[[[-84.4119611791377,32.0339923301253],[-84.4136762545858,32.0330467718579],[-84.4124504842656,32.033722570049],[-84.4119611791377,32.0339923301253]]],[[[-84.4000928667376,32.0341438725614],[-84.4012109030594,32.0341613245273],[-84.4010878491293,32.0364121910297],[-84.3999698158092,32.0364325210721],[-84.4000928667376,32.0341438725614]]],[[[-84.4022712793648,32.0341828934961],[-84.4025058925392,32.036472646995],[-84.401238860175,32.036463964036],[-84.4022712793648,32.0341828934961]]],[[[-84.3915680723274,32.0349429700274],[-84.3928067996734,32.0347357249395],[-84.3934963949785,32.0370274334233],[-84.3919219815536,32.0376094276055],[-84.3915680723274,32.0349429700274]]]]}},{"type":"Feature","properties":{"hazard":"nws-alert","severity":"Severe","tone":"elevated","event":"Tropical Storm Warning","unit_code":"JELA","unit_name":"Jean Lafitte National Historical Park and Preserve","alert_id":"urn:oid:2.49.0.1.840.0.ca85868e00f4da06d257d24046fd69195a17b7c6.003.2","acres_affected":6.3},"geometry":{"type":"Polygon","coordinates":[[[-89.9180451897736,30.0701384173269],[-89.9166301144579,30.0717476557233],[-89.9149134729284,30.070303113465],[-89.9180451897736,30.0701384173269]]]}},{"type":"Feature","properties":{"hazard":"nws-alert","severity":"Extreme","tone":"critical","event":"Storm Surge Warning","unit_code":"JELA","unit_name":"Jean Lafitte National Historical Park and Preserve","alert_id":"urn:oid:2.49.0.1.840.0.ca85868e00f4da06d257d24046fd69195a17b7c6.003.1","acres_affected":6.3},"geometry":{"type":"Polygon","coordinates":[[[-89.9180451897736,30.0701384173269],[-89.9166301144579,30.0717476557233],[-89.9149134729284,30.070303113465],[-89.9180451897736,30.0701384173269]]]}},{"type":"Feature","properties":{"hazard":"nws-alert","severity":"Extreme","tone":"critical","event":"Storm Surge Warning","unit_code":"GUIS","unit_name":"Gulf Islands National Seashore","alert_id":"urn:oid:2.49.0.1.840.0.ca85868e00f4da06d257d24046fd69195a17b7c6.007.2","acres_affected":911.4},"geometry":{"type":"MultiPolygon","coordinates":[[[[-88.7934231828796,30.3904629981297],[-88.7935498141167,30.395082728137],[-88.7985531635303,30.3959115911539],[-88.7972844182749,30.3980543006647],[-88.7953588447475,30.3981143957412],[-88.7953810249557,30.4027244827498],[-88.7911481657879,30.4026667318765],[-88.7911023786175,30.3990653640896],[-88.7784994721103,30.3982097973172],[-88.7807511193381,30.412076883279],[-88.7780445905736,30.4116376692721],[-88.7766783374978,30.3956740378218],[-88.7868634952928,30.395465471441],[-88.7867913150504,30.3903820193302],[-88.7886775765834,30.3906960213368],[-88.7889358145395,30.3880691637531],[-88.7934231828796,30.3904629981297]]],[[[-88.7808511278142,30.3766488055177],[-88.7835630703302,30.371373334273],[-88.8117343776789,30.3849606873225],[-88.8123954609629,30.3872908758108],[-88.8113608077616,30.3891972382623],[-88.8109334785231,30.3864363956719],[-88.8012041078072,30.3855701008023],[-88.7984851919829,30.3838355235119],[-88.7844500080946,30.3832711418499],[-88.7808511278142,30.3766488055177]]],[[[-88.8097488353263,30.3893883403572],[-88.8089681041309,30.3898341694805],[-88.8082472548936,30.3889450263096],[-88.8097488353263,30.3893883403572]]]]}},{"type":"Feature","properties":{"hazard":"nws-alert","severity":"Extreme","tone":"critical","event":"Hurricane Warning","unit_code":"GUIS","unit_name":"Gulf Islands National Seashore","alert_id":"urn:oid:2.49.0.1.840.0.ca85868e00f4da06d257d24046fd69195a17b7c6.007.1","acres_affected":911.4},"geometry":{"type":"MultiPolygon","coordinates":[[[[-88.7934231828796,30.3904629981297],[-88.7935498141167,30.395082728137],[-88.7985531635303,30.3959115911539],[-88.7972844182749,30.3980543006647],[-88.7953588447475,30.3981143957412],[-88.7953810249557,30.4027244827498],[-88.7911481657879,30.4026667318765],[-88.7911023786175,30.3990653640896],[-88.7784994721103,30.3982097973172],[-88.7807511193381,30.412076883279],[-88.7780445905736,30.4116376692721],[-88.7766783374978,30.3956740378218],[-88.7868634952928,30.395465471441],[-88.7867913150504,30.3903820193302],[-88.7886775765834,30.3906960213368],[-88.7889358145395,30.3880691637531],[-88.7934231828796,30.3904629981297]]],[[[-88.7808511278142,30.3766488055177],[-88.7835630703302,30.371373334273],[-88.8117343776789,30.3849606873225],[-88.8123954609629,30.3872908758108],[-88.8113608077616,30.3891972382623],[-88.8109334785231,30.3864363956719],[-88.8012041078072,30.3855701008023],[-88.7984851919829,30.3838355235119],[-88.7844500080946,30.3832711418499],[-88.7808511278142,30.3766488055177]]],[[[-88.8097488353263,30.3893883403572],[-88.8089681041309,30.3898341694805],[-88.8082472548936,30.3889450263096],[-88.8097488353263,30.3893883403572]]]]}},{"type":"Feature","properties":{"hazard":"nws-alert","severity":"Severe","tone":"elevated","event":"Tropical Storm Warning","unit_code":"SEMO","unit_name":"Selma to Montgomery National Historic Trail","alert_id":"urn:oid:2.49.0.1.840.0.e0a24b0102b1dccb35a3cb1460f1d65981a08bb6.023.1","acres_affected":9.1},"geometry":{"type":"Polygon","coordinates":[[[-86.7309249152804,32.2704570379205],[-86.7309505693501,32.271715174191],[-86.7253069517102,32.2707234081793],[-86.7309249152804,32.2704570379205]]]}},{"type":"Feature","properties":{"hazard":"nws-alert","severity":"Severe","tone":"elevated","event":"Tropical Storm Watch","unit_code":"HOBE","unit_name":"Horseshoe Bend National Military Park","alert_id":"urn:oid:2.49.0.1.840.0.e0a24b0102b1dccb35a3cb1460f1d65981a08bb6.016.1","acres_affected":2103.3},"geometry":{"type":"Polygon","coordinates":[[[-85.7143542145882,32.9897201276128],[-85.7145314908571,32.9745508883477],[-85.7231365803093,32.9745587450345],[-85.7231410541238,32.9709307982549],[-85.7274450543503,32.9709345050982],[-85.7274493531647,32.9673065553186],[-85.731753178391,32.967310114162],[-85.7317618210019,32.9597014055267],[-85.7491715599652,32.9597773819063],[-85.7490522264484,32.9892196842344],[-85.7143542145882,32.9897201276128]]]}},{"type":"Feature","properties":{"hazard":"nws-alert","severity":"Severe","tone":"elevated","event":"Tropical Storm Warning","unit_code":"TUAI","unit_name":"Tuskegee Airmen National Historic Site","alert_id":"urn:oid:2.49.0.1.840.0.e0a24b0102b1dccb35a3cb1460f1d65981a08bb6.025.1","acres_affected":89.3},"geometry":{"type":"Polygon","coordinates":[[[-85.6796203658486,32.4580716290605],[-85.6748408413273,32.4548090635221],[-85.6777012709467,32.4508740005661],[-85.685425515516,32.4583873989226],[-85.6796203658486,32.4580716290605]]]}},{"type":"Feature","properties":{"hazard":"nws-alert","severity":"Severe","tone":"elevated","event":"Tropical Storm Warning","unit_code":"TUIN","unit_name":"Tuskegee Institute National Historic Site","alert_id":"urn:oid:2.49.0.1.840.0.e0a24b0102b1dccb35a3cb1460f1d65981a08bb6.025.1","acres_affected":64.9},"geometry":{"type":"MultiPolygon","coordinates":[[[[-85.7097472319549,32.4284337825549],[-85.7093273788592,32.4289131106739],[-85.7090958717713,32.4284681005855],[-85.7097472319549,32.4284337825549]]],[[[-85.7020209777804,32.4289050569316],[-85.7017510075729,32.4262572763662],[-85.7067496250662,32.4277032145027],[-85.7079905395416,32.4301828619971],[-85.7034369863903,32.4331000727923],[-85.7020209777804,32.4289050569316]],[[-85.7061418999391,32.4286316657259],[-85.7063732889848,32.4282220086287],[-85.7062012179329,32.4281637456222],[-85.7061418999391,32.4286316657259]]],[[[-85.7159781757918,32.429743491618],[-85.7163604859238,32.4302129797064],[-85.7151800566227,32.430915911901],[-85.7159781757918,32.429743491618]]]]}},{"type":"Feature","properties":{"hazard":"nws-alert","severity":"Severe","tone":"elevated","event":"Tropical Storm Watch","unit_code":"BICR","unit_name":"Birmingham Civil Rights National Monument","alert_id":"urn:oid:2.49.0.1.840.0.e0a24b0102b1dccb35a3cb1460f1d65981a08bb6.001.1","acres_affected":0.4},"geometry":{"type":"Polygon","coordinates":[[[-86.815112917042,33.5155262120867],[-86.814536979894,33.5157982301661],[-86.8142307997824,33.5153419160819],[-86.815112917042,33.5155262120867]]]}},{"type":"Feature","properties":{"hazard":"nws-alert","severity":"Extreme","tone":"critical","event":"Hurricane Warning","unit_code":"GUIS","unit_name":"Gulf Islands National Seashore","alert_id":"urn:oid:2.49.0.1.840.0.d9e25e8f2821d012a7e3d8c35b10207042f8f33f.019.1","acres_affected":18704.8},"geometry":{"type":"MultiPolygon","coordinates":[[[[-87.097,30.334],[-87.216,30.32],[-87.284,30.31],[-87.302,30.329],[-87.29440575198281,30.3336733833952],[-87.2520742970314,30.331448382171],[-87.227508015347,30.3355250788661],[-87.1697503533741,30.3392137375389],[-87.15756739565307,30.34487943110361],[-87.078,30.351],[-87.052,30.359],[-86.928,30.381],[-86.92,30.371],[-87.097,30.334]]],[[[-87.306,30.346],[-87.30969643397849,30.341892851135018],[-87.309466240768,30.3483315050853],[-87.3008194343557,30.3483379763646],[-87.2990393019142,30.3496319487095],[-87.2989410381558,30.355927965113],[-87.2941392318495,30.3567153274424],[-87.2922761580494,30.350154281043],[-87.2908067176466,30.3503262881285],[-87.28803169635638,30.3450785485311],[-87.306,30.346]]],[[[-87.314,30.327],[-87.321,30.317],[-87.41929246413741,30.297510976938273],[-87.4196006658163,30.3093526888813],[-87.4127626097603,30.3058296593174],[-87.3980971016692,30.3057542417711],[-87.3929893574016,30.3094210997504],[-87.3908612631283,30.3169273914879],[-87.3888257626226,30.3183763108753],[-87.3475733983537,30.3238615434193],[-87.31483653761684,30.334528838551584],[-87.314,30.327]]]]}},{"type":"Feature","properties":{"hazard":"nws-alert","severity":"Extreme","tone":"critical","event":"Storm Surge Warning","unit_code":"GUIS","unit_name":"Gulf Islands National Seashore","alert_id":"urn:oid:2.49.0.1.840.0.d9e25e8f2821d012a7e3d8c35b10207042f8f33f.019.2","acres_affected":18648.4},"geometry":{"type":"MultiPolygon","coordinates":[[[[-87.078,30.351],[-87.052,30.359],[-86.928,30.381],[-86.92,30.371],[-87.097,30.334],[-87.21,30.321],[-87.284,30.31],[-87.302,30.329],[-87.29440575198281,30.3336733833952],[-87.2520742970314,30.331448382171],[-87.227508015347,30.3355250788661],[-87.1697503533741,30.3392137375389],[-87.15756739565307,30.34487943110361],[-87.078,30.351]]],[[[-87.306,30.346],[-87.30969643397849,30.341892851135018],[-87.309466240768,30.3483315050853],[-87.3008194343557,30.3483379763646],[-87.2990393019142,30.3496319487095],[-87.2989410381558,30.355927965113],[-87.2941392318495,30.3567153274424],[-87.2922761580494,30.350154281043],[-87.2908067176466,30.3503262881285],[-87.28803169635638,30.3450785485311],[-87.306,30.346]]],[[[-87.314,30.327],[-87.321,30.317],[-87.41929246413741,30.297510976938273],[-87.4196006658163,30.3093526888813],[-87.4127626097603,30.3058296593174],[-87.3980971016692,30.3057542417711],[-87.3929893574016,30.3094210997504],[-87.3908612631283,30.3169273914879],[-87.3888257626226,30.3183763108753],[-87.3475733983537,30.3238615434193],[-87.31483653761684,30.334528838551584],[-87.314,30.327]]]]}},{"type":"Feature","properties":{"hazard":"nws-alert","severity":"Extreme","tone":"critical","event":"Hurricane Warning","unit_code":"GUIS","unit_name":"Gulf Islands National Seashore","alert_id":"urn:oid:2.49.0.1.840.0.d9e25e8f2821d012a7e3d8c35b10207042f8f33f.018.1","acres_affected":6616.4},"geometry":{"type":"MultiPolygon","coordinates":[[[[-86.8,30.387],[-86.92,30.371],[-86.92,30.375],[-86.928,30.381],[-86.93435876211787,30.3857690715884],[-86.9195440384607,30.3875690303332],[-86.9023951498139,30.3912059116938],[-86.8588119238245,30.3963104722285],[-86.8514065328491,30.398638113985],[-86.8328826715432,30.3959155959703],[-86.8176735214256,30.3993034202134],[-86.79985142837509,30.396508583993946],[-86.8,30.387]]],[[[-87.149,30.359],[-87.15132319831237,30.35667680168763],[-87.1537721986254,30.3559910987878],[-87.1574360451573,30.367904307323],[-87.15656997905425,30.368],[-87.146,30.368],[-87.14453359591407,30.369466404085934],[-87.1393632093297,30.3731085880619],[-87.13850923370687,30.375490766293126],[-87.13496767486765,30.379032325132343],[-87.1209201175323,30.3814600035137],[-87.1174528099452,30.3669829664009],[-87.1204039866996,30.3653339639389],[-87.13156010689156,30.362210328582155],[-87.149,30.359]]]]}},{"type":"Feature","properties":{"hazard":"nws-alert","severity":"Extreme","tone":"critical","event":"Hurricane Warning","unit_code":"GUIS","unit_name":"Gulf Islands National Seashore","alert_id":"urn:oid:2.49.0.1.840.0.d9e25e8f2821d012a7e3d8c35b10207042f8f33f.020.1","acres_affected":6503.3},"geometry":{"type":"Polygon","coordinates":[[[-86.535,30.395],[-86.51618272568382,30.39698076571749],[-86.5167178087815,30.3946913527912],[-86.5133196036933,30.3915430741945],[-86.51338779929699,30.38658932438487],[-86.515,30.388],[-86.647,30.397],[-86.8,30.387],[-86.79985142837509,30.396508583993946],[-86.7953197420114,30.3957979311459],[-86.7643846304019,30.397265529463],[-86.7590851370556,30.4005456403651],[-86.7425355714159,30.4005641878984],[-86.7260466751152,30.4081668171241],[-86.6956511574485,30.4048592163567],[-86.6744938856241,30.4074814786189],[-86.658306676034,30.4063575038848],[-86.6533235344458,30.4018930210459],[-86.648392720002,30.4004795088873],[-86.6357479305116,30.4018574425991],[-86.611017078478,30.3997036389067],[-86.59495380748402,30.4009953807484],[-86.535,30.395]]]}},{"type":"Feature","properties":{"hazard":"nws-alert","severity":"Extreme","tone":"critical","event":"Storm Surge Warning","unit_code":"GUIS","unit_name":"Gulf Islands National Seashore","alert_id":"urn:oid:2.49.0.1.840.0.d9e25e8f2821d012a7e3d8c35b10207042f8f33f.018.2","acres_affected":6616.4},"geometry":{"type":"MultiPolygon","coordinates":[[[[-86.8,30.387],[-86.92,30.371],[-86.92,30.375],[-86.93435876211787,30.3857690715884],[-86.9195440384607,30.3875690303332],[-86.9023951498139,30.3912059116938],[-86.8588119238245,30.3963104722285],[-86.8514065328491,30.398638113985],[-86.8328826715432,30.3959155959703],[-86.8176735214256,30.3993034202134],[-86.79985142837509,30.396508583993946],[-86.8,30.387]]],[[[-87.149,30.359],[-87.15132319831237,30.35667680168763],[-87.1537721986254,30.3559910987878],[-87.1574360451573,30.367904307323],[-87.15656997905425,30.368],[-87.146,30.368],[-87.14453359591407,30.369466404085934],[-87.1393632093297,30.3731085880619],[-87.13850923370687,30.375490766293126],[-87.13496767486765,30.379032325132343],[-87.1209201175323,30.3814600035137],[-87.1174528099452,30.3669829664009],[-87.1204039866996,30.3653339639389],[-87.13156010689156,30.362210328582155],[-87.149,30.359]]]]}},{"type":"Feature","properties":{"hazard":"nws-alert","severity":"Extreme","tone":"critical","event":"Storm Surge Warning","unit_code":"GUIS","unit_name":"Gulf Islands National Seashore","alert_id":"urn:oid:2.49.0.1.840.0.d9e25e8f2821d012a7e3d8c35b10207042f8f33f.020.2","acres_affected":6503.3},"geometry":{"type":"Polygon","coordinates":[[[-86.535,30.395],[-86.51618272568382,30.39698076571749],[-86.5167178087815,30.3946913527912],[-86.5133196036933,30.3915430741945],[-86.51338779929699,30.38658932438487],[-86.515,30.388],[-86.647,30.397],[-86.8,30.387],[-86.79985142837509,30.396508583993946],[-86.7953197420114,30.3957979311459],[-86.7643846304019,30.397265529463],[-86.7590851370556,30.4005456403651],[-86.7425355714159,30.4005641878984],[-86.7260466751152,30.4081668171241],[-86.6956511574485,30.4048592163567],[-86.6744938856241,30.4074814786189],[-86.658306676034,30.4063575038848],[-86.6533235344458,30.4018930210459],[-86.648392720002,30.4004795088873],[-86.6357479305116,30.4018574425991],[-86.611017078478,30.3997036389067],[-86.59495380748402,30.4009953807484],[-86.535,30.395]]]}}],"hazard":"nws-alert","attribution":"NOAA NWS · NPS boundaries","generatedAt":"2026-10-08T23:54:37Z","version":"v1"}