{"type":"FeatureCollection","features":[{"type":"Feature","properties":{"hazard":"quake-buffer","severity":"MODERATE","tone":"moderate","mag":5.5,"buffer_km":50.0,"unit_code":"KATM","unit_name":"Katmai National Park","quake_id":"aka2026tuxgky","acres_affected":767360.7},"geometry":{"type":"MultiPolygon","coordinates":[[[[-154.06676657885012,58.42194274085985],[-154.08444986766537,58.427886295450215],[-154.10185584119813,58.434053318817746],[-154.11897419693545,58.4404402118612],[-154.13579478401684,58.447043245218175],[-154.15230760894784,58.45385856123782],[-154.1685028412678,58.460882176026175],[-154.18437081916997,58.46810998156316],[-154.19990205507068,58.4755377478909],[-154.21508724112584,58.48316112537241],[-154.22991725469117,58.49097564702029],[-154.2443831637241,58.49897673089425],[-154.25847623212397,58.507159682567035],[-154.27218792500796,58.51551969765788],[-154.28550991391955,58.524051864432266],[-154.29843408196638,58.53275116646775],[-154.3109525288847,58.54161248538435],[-154.32305757602663,58.5506306036387],[-154.33474177126743,58.55980020738118],[-154.3459978938291,58.56911588937461],[-154.3568189590171,58.57857215197365],[-154.36719822286642,58.588163410163794],[-154.37712918669362,58.59788399465836],[-154.38660560155122,58.60772815505306],[-154.39562147258042,58.617690063035965],[-154.404171063259,58.627763815652116],[-154.41224889953995,58.63794343862136],[-154.4198497738774,58.64822288970777],[-154.42696874913574,58.658596062139324],[-154.43360116237835,58.66905678807649],[-154.43974262853115,58.67959884212769],[-154.44538904391797,58.69021594491073],[-154.45053658966296,58.70090176665785],[-154.45518173495662,58.71164993086298],[-154.4593212401805,58.722454017969724],[-154.4629521598873,58.733307569097676],[-154.4660718456323,58.74420408980561],[-154.4686779486513,58.75513705388962],[-154.47076842238164,58.76609990721407],[-154.4723415248223,58.77708607157342],[-154.47339582072854,58.78808894858291],[-154.4739301836379,58.799101923596005],[-154.4739437977226,58.81011836964622],[-154.47343615946568,58.821131651411385],[-154.47240707915583,58.8321351291981],[-154.47085668219816,58.84312216294363],[-154.46878541023668,58.85408611623351],[-154.466194022085,58.86502036033204],[-154.46308359446198,58.87591827822321],[-154.45945552252857,58.88677326865993],[-154.45531152022303,58.897578750218514],[-154.45065362039097,58.908328165356444],[-154.4454841747074,58.91901498447017],[-154.43980585338784,58.92963270995071],[-154.4336216446861,58.94017488023437],[-154.4269348541755,58.950635073845596],[-154.41974910381185,58.96100691342936],[-154.41206833077553,58.97128406977041],[-154.40389678609083,58.98146026579633],[-154.39523903302083,58.99152928056178],[-154.38793801843119,58.99948264669337],[-154.154756825741,58.9994850334193],[-154.156746706639,59.0045913517239],[-154.165356885123,59.0060528182743],[-154.162619569392,59.0114431522925],[-154.163232854144,59.0179037667086],[-154.161863915527,59.0201669617504],[-154.153527290278,59.0242562727383],[-154.149328412301,59.023986626412],[-154.145064188963,59.0213879892719],[-154.141349509391,59.0218465148152],[-154.134902460312,59.0280733103479],[-154.120509194181,59.0319216702972],[-154.117900938431,59.0355717294276],[-154.109687223815,59.0373359485728],[-154.105888335074,59.0409148238941],[-154.104956338665,59.0452660977109],[-154.118415948666,59.0394235030567],[-154.092755988796,59.0514236891458],[-154.078674342369,59.065010623314],[-154.065656366752,59.073233296722],[-154.038931211514,59.0726072949322],[-154.035987638387,59.0738814312949],[-154.036636229911,59.0748202391232],[-154.025094744511,59.0733114290348],[-154.012522232834,59.0746636958918],[-153.985117831425,59.0703128364882],[-153.952389546417,59.0679802397623],[-153.917226635178,59.0599883168394],[-153.882208170587,59.0599356582991],[-153.873654956288,59.0571281368416],[-153.853123741406,59.0541974672594],[-153.836898146071,59.0576114705325],[-153.828181564944,59.0636021364435],[-153.820910766651,59.0643042755242],[-153.809791171643,59.073731280554],[-153.799996026795,59.0733168631117],[-153.794334168805,59.0712441471488],[-153.790307172883,59.0676988860407],[-153.783375818021,59.0674597441388],[-153.77741417315,59.0638684733355],[-153.767734826235,59.0633504778826],[-153.763085348365,59.0615523457411],[-153.76617817853,59.0603424753492],[-153.755974166644,59.0530301464836],[-153.750604020875,59.0564639560649],[-153.75019894959,59.059355073913],[-153.75201435657,59.0628497383701],[-153.750796232395,59.0658721553351],[-153.723919958781,59.0681055573584],[-153.711383051294,59.0766332826793],[-153.707508440391,59.0765364962906],[-153.70180644823,59.0758779602285],[-153.697558028973,59.0734545470709],[-153.691040832153,59.064818758728],[-153.672475750177,59.0516987585952],[-153.661892598592,59.0397696931288],[-153.632481584709,59.0158269774844],[-153.619828591315,59.0074797060728],[-153.593696346774,58.9962737069708],[-153.600684936131,59.0007665045505],[-153.616465008889,59.0065272946671],[-153.622888929327,59.0111203793268],[-153.612093213603,59.0057486994055],[-153.599509603819,59.0018653106523],[-153.589942950878,58.9962041795605],[-153.584286983496,58.9968873893907],[-153.551078974339,58.9858781803743],[-153.518569193203,58.9835173286103],[-153.512942747905,58.986061729299],[-153.507708313095,58.9911785197374],[-153.487462137736,58.9995085922777],[-153.472645611286,58.9926507260899],[-153.452529309281,58.9776579923245],[-153.443549982101,58.9733475970392],[-153.43910050698,58.9728543367682],[-153.438538205887,58.9743715427444],[-153.429552122576,58.9749742100994],[-153.430057938916,58.9738760131012],[-153.426143995711,58.9715615448805],[-153.419150121168,58.9701845320705],[-153.409688177982,58.970973345486],[-153.407107574394,58.9732262187226],[-153.405148935314,58.9729646070468],[-153.408070710767,58.9687898018979],[-153.404163784507,58.9646681358083],[-153.401484888203,58.9519765471556],[-153.394594590749,58.9456121516943],[-153.384867499128,58.9439274253317],[-153.379150573575,58.9391817475689],[-153.382587784829,58.9398352149861],[-153.38097536628,58.9370732254392],[-153.382235888821,58.9363661452949],[-153.379834295429,58.9355402227291],[-153.375274969329,58.9282083589752],[-153.373820184601,58.9285827451742],[-153.375574720588,58.9303910157688],[-153.361565915581,58.9243355603916],[-153.362242682657,58.9227898203994],[-153.35711369892,58.9263542279367],[-153.343262087865,58.9236644202886],[-153.329593696365,58.9253811682899],[-153.327262282022,58.9229270248319],[-153.324830166029,58.9227854192206],[-153.325942767323,58.921642352131],[-153.32530990206,58.9177118295166],[-153.323110349603,58.9133497471773],[-153.330449751262,58.9115050261703],[-153.3327208908,58.907411968116],[-153.329185163567,58.8981809483401],[-153.330044536737,58.8968068223069],[-153.324952095221,58.8887049686904],[-153.326761940491,58.8875609684925],[-153.322108288249,58.8834040385195],[-153.310584358559,58.8780408407027],[-153.297670480428,58.8804536265344],[-153.292074751547,58.8768603706664],[-153.285675485517,58.8746839778199],[-153.295213463094,58.8728248304726],[-153.311806127633,58.8765217566235],[-153.323376067561,58.8736755580327],[-153.329184685831,58.874506758069],[-153.330905262569,58.8724376209527],[-153.339747157773,58.8733490275117],[-153.341820544668,58.8715738293191],[-153.342478111652,58.8681347514681],[-153.338752682094,58.8652106162607],[-153.345305077436,58.8662159581689],[-153.346266948669,58.8632253542379],[-153.351711939862,58.8621765694684],[-153.35064633762,58.8634182145433],[-153.351984458722,58.8636800303162],[-153.348103936197,58.8642536338773],[-153.347508521424,58.8663342278179],[-153.34935387388,58.8655125565911],[-153.35406168274,58.8672956327291],[-153.357464730859,58.8608100206743],[-153.351669879022,58.8589968177073],[-153.343707454832,58.8616179607532],[-153.33314784546,58.856854230742],[-153.329030654011,58.8592731642052],[-153.332602665037,58.8595433516304],[-153.331362275891,58.8626667665951],[-153.334593142143,58.8615786301724],[-153.330947319409,58.8635344205962],[-153.326740136778,58.8587268296011],[-153.308502924427,58.8535158448153],[-153.282754716585,58.8608113592849],[-153.28103425928,58.8636313643468],[-153.26407553088,58.8653361668587],[-153.257232663539,58.862594973122],[-153.258788247959,58.8599633770717],[-153.251814714422,58.860329436129],[-153.254851715374,58.8587086397749],[-153.255515850136,58.8566124388243],[-153.253199264953,58.8561515652179],[-153.250399937436,58.851629380982],[-153.255605868105,58.8479259854425],[-153.262614674765,58.8512307781128],[-153.268745307756,58.8498675672593],[-153.266201247569,58.8476580368155],[-153.269011452053,58.8452133815569],[-153.263700135672,58.840765632706],[-153.28346871,58.8408362316295],[-153.278046538792,58.8366784437747],[-153.280861042405,58.8361845743735],[-153.291017713602,58.8388923645983],[-153.312381860817,58.8406046421544],[-153.315945126025,58.8394590396845],[-153.31678553752,58.8403685584875],[-153.315206318957,58.8427551745587],[-153.311006853634,58.845390229019],[-153.312632319686,58.8473108356263],[-153.311101126119,58.8479629708167],[-153.311248103159,58.849769428662],[-153.31563712041,58.8522070298022],[-153.325258066826,58.8518054253366],[-153.325600301842,58.8535827691537],[-153.327136057986,58.8539277738899],[-153.332211329596,58.853574635127],[-153.332988721182,58.8529088370548],[-153.326631929754,58.8534948219998],[-153.327627038521,58.8514268259961],[-153.331310515685,58.8519424363862],[-153.335413717231,58.8514180317869],[-153.338611667229,58.8533443581493],[-153.346637866877,58.8549729527832],[-153.353755062935,58.8537960227634],[-153.349075926284,58.8523742225943],[-153.34644785214,58.8536863539067],[-153.337945438893,58.8527219672983],[-153.335666719954,58.8509558337813],[-153.329997315424,58.8514093586291],[-153.317572660063,58.8482736277885],[-153.315416845998,58.8462959642678],[-153.324632275286,58.8491034316311],[-153.34120326795,58.8478409611486],[-153.354253738736,58.8413812315931],[-153.3633865281,58.8304790329713],[-153.363380657977,58.8319966168613],[-153.366746461882,58.8337777492084],[-153.365969503376,58.8328521663967],[-153.368031635418,58.8330565580615],[-153.366198051624,58.8315660324552],[-153.370123902066,58.8325817617713],[-153.372921495412,58.8298962245332],[-153.373482488807,58.82888501852],[-153.369514051679,58.8318728149178],[-153.366927455905,58.8303672144296],[-153.361743242992,58.8301881692478],[-153.367568423633,58.8230111558678],[-153.375006027095,58.7930712309019],[-153.380204225727,58.7875550324986],[-153.380052477563,58.7750961604331],[-153.382455595847,58.7722655592672],[-153.385911201005,58.7623247684581],[-153.395103179209,58.7493389659824],[-153.42057404067,58.7291193605135],[-153.431440651803,58.7160883637837],[-153.442839655628,58.7112808183699],[-153.444233046096,58.7086941493435],[-153.454789651944,58.7073685498054],[-153.467228365897,58.711592829569],[-153.480839169861,58.7124194243999],[-153.494757955825,58.7062780166948],[-153.509531554552,58.6910291405268],[-153.522775155886,58.6924871353691],[-153.541736355364,58.6910802025369],[-153.555498404851,58.6858425947918],[-153.575811933966,58.6698754108232],[-153.583780945254,58.6603888112889],[-153.590976714051,58.6429528144602],[-153.592558140078,58.6325596059813],[-153.604343324847,58.6347041390011],[-153.629664496972,58.6313567343328],[-153.646592500627,58.6231000063254],[-153.66085011792,58.6140205217922],[-153.676765107696,58.611189589542],[-153.693463510632,58.6122205858854],[-153.735214883496,58.6095707266306],[-153.770484167029,58.6041437055844],[-153.776406697018,58.6062999685095],[-153.758367787209,58.610670171972],[-153.738374312492,58.618591976474],[-153.722114949565,58.6175963240602],[-153.710306101096,58.6194789987457],[-153.717346503332,58.6186183247215],[-153.724928591573,58.6213277153491],[-153.729090375444,58.619625579832],[-153.742609774149,58.6200405197121],[-153.745742153616,58.6193199182815],[-153.747715696128,58.6168351771608],[-153.756308319619,58.6147737729859],[-153.750951954109,58.6187885845159],[-153.75033656352,58.6212309194299],[-153.757275709164,58.6158005817603],[-153.758778512366,58.6127373727553],[-153.784438557366,58.6057107093126],[-153.807811959647,58.6060785816749],[-153.835450166563,58.6113996980102],[-153.85381436017,58.6120049601285],[-153.898095357647,58.6071770906493],[-153.904522482915,58.5939923026403],[-153.905059101974,58.5853056932054],[-153.903138553878,58.57969875392],[-153.894804963696,58.5770148914063],[-153.879309326309,58.5769923647996],[-153.878974125695,58.5741163070656],[-153.875012731362,58.5697094980052],[-153.878609129307,58.5698671604385],[-153.882349144305,58.5736670885782],[-153.892056749742,58.5715961012344],[-153.897805475621,58.5682547035964],[-153.900424148655,58.5631945585695],[-153.912076338978,58.5539811574589],[-153.920027923175,58.5371813654858],[-153.922282499016,58.5210933003384],[-153.924265456519,58.5185769662204],[-153.926557886384,58.5185031018725],[-153.92546792675,58.5244008846005],[-153.926575825283,58.5254262823532],[-153.942259909142,58.5316287584721],[-153.948340128989,58.5317968845221],[-153.956614305033,58.5271497465936],[-153.956938924879,58.5251260936948],[-153.953798623899,58.519607882591],[-153.944496053466,58.5128376965305],[-153.936235053317,58.5119773568679],[-153.917493722843,58.5168905723901],[-153.908239430993,58.5164915648463],[-153.911792457195,58.5117777036502],[-153.922686901399,58.5058157744157],[-153.923727497332,58.5022161655238],[-153.921930222837,58.5012056978762],[-153.928111077763,58.499741501033],[-153.933377888622,58.49453409861],[-153.945681105622,58.4918642849137],[-153.950376673989,58.4928573521162],[-153.961400900845,58.488062568776],[-153.976607902199,58.4880174964369],[-153.980620306462,58.490556689629],[-153.988835274821,58.4882342785372],[-154.003570815467,58.4922408849677],[-154.020524092042,58.4909456854533],[-154.033844239057,58.4866094877265],[-154.044293021344,58.489669337888],[-154.05281947132,58.4902551515308],[-154.064148819371,58.4858417461171],[-154.073639616715,58.4764685363589],[-154.077614490145,58.4757487438009],[-154.07220287415,58.4468092778053],[-154.066933792756,58.4385668722342],[-154.071874571992,58.4357809426831],[-154.071594446934,58.4374428866015],[-154.073550872918,58.4375600862918],[-154.079215802338,58.4315801498689],[-154.07706238534,58.4332119540777],[-154.070984252133,58.4288137353426],[-154.072383061433,58.4312429539452],[-154.070397191862,58.4318629492042],[-154.06993619741,58.4292321394724],[-154.066499668089,58.4266134781974],[-154.069455192968,58.4337701522061],[-154.068539438235,58.4359664821822],[-154.065043200683,58.4347206748135],[-154.057374165626,58.4197406791162],[-154.0564317444069,58.4186513872554],[-154.06676657885012,58.42194274085985]]],[[[-154.025610251916,58.441161365398],[-154.028784357115,58.4399638159992],[-154.028117361934,58.4413789569959],[-154.02596408349,58.4422138682648],[-154.025610251916,58.441161365398]]],[[[-154.015858406231,58.4463676535089],[-154.01613265139,58.446670750444],[-154.014973921558,58.4468867756062],[-154.015858406231,58.4463676535089]]],[[[-153.997262759543,58.4544888257634],[-153.997567334635,58.4546750727026],[-153.996684199615,58.454574381846],[-153.997262759543,58.4544888257634]]],[[[-153.984649169979,58.4579140794489],[-153.996358124203,58.4556006528195],[-154.009887050553,58.4500746241505],[-154.015234313473,58.4503246553088],[-154.008777755888,58.4577312577483],[-153.984649169979,58.4579140794489]]],[[[-153.982003780325,58.4583387848244],[-153.982335611416,58.4585250717594],[-153.981594002837,58.4592223878214],[-153.980159125751,58.4589637850616],[-153.982003780325,58.4583387848244]]],[[[-154.01416409457,58.468260844131],[-154.012203701916,58.4687341923974],[-154.01402988713,58.4674666882112],[-154.01416409457,58.468260844131]]],[[[-153.690256784487,58.548159276117],[-153.688615811595,58.5482373143645],[-153.688988589384,58.5478892653327],[-153.690256784487,58.548159276117]]],[[[-153.731588474532,58.5546315282595],[-153.731664900736,58.5567685690895],[-153.730065453957,58.5552776084468],[-153.731588474532,58.5546315282595]]],[[[-153.895139490167,58.5619540724774],[-153.895361228264,58.5621410394292],[-153.894448680408,58.5623315505559],[-153.895139490167,58.5619540724774]]],[[[-153.730179011429,58.5631989958427],[-153.729984365681,58.5636308808407],[-153.72976321265,58.5635605078801],[-153.730179011429,58.5631989958427]]],[[[-153.726110189076,58.5640616524069],[-153.725887683273,58.5643950444166],[-153.725611747245,58.5643251064643],[-153.726110189076,58.5640616524069]]],[[[-153.728183317268,58.5645436670512],[-153.728126936433,58.5648315580386],[-153.727518313471,58.5648576651306],[-153.728183317268,58.5645436670512]]],[[[-153.726522314551,58.5649304792789],[-153.726241871241,58.5661311332334],[-153.724721248186,58.5659287804831],[-153.726522314551,58.5649304792789]]],[[[-153.723612476629,58.5666355106019],[-153.723527968836,58.5669949205884],[-153.722422820682,58.5666463577848],[-153.723612476629,58.5666355106019]]],[[[-153.718626882843,58.5684371492383],[-153.720341067923,58.5686970389544],[-153.718097677402,58.5693878142496],[-153.718626882843,58.5684371492383]]],[[[-153.712987787715,58.5748905706313],[-153.714748660835,58.569922857727],[-153.716711072085,58.5705004393813],[-153.715016921198,58.5723511215059],[-153.717778660918,58.5738129429713],[-153.712987787715,58.5748905706313]]],[[[-153.877375189288,58.5785850959795],[-153.876545075507,58.5789136870832],[-153.876821306154,58.5783099800855],[-153.877375189288,58.5785850959795]]],[[[-153.778101505261,58.6033210984688],[-153.777739786875,58.6043785294462],[-153.776715048826,58.6042190456164],[-153.778101505261,58.6033210984688]]],[[[-153.554309360236,58.6109145274875],[-153.552860066118,58.6035605662522],[-153.549006158131,58.5998007221243],[-153.549806504807,58.5975201671682],[-153.560242309604,58.5960968106603],[-153.568134371754,58.5968881453826],[-153.572394005303,58.5946151528916],[-153.578185429613,58.5973147867981],[-153.565929562363,58.603103884266],[-153.563524329882,58.6056206614525],[-153.564913156126,58.6079048270699],[-153.557994084483,58.6115950168679],[-153.554309360236,58.6109145274875]]],[[[-153.283363484485,58.7583947856502],[-153.283420842798,58.7589425626014],[-153.282753514879,58.7590428566976],[-153.283363484485,58.7583947856502]]],[[[-153.274471231452,58.7612611968209],[-153.276501772421,58.7613330205007],[-153.272999365031,58.7621755729827],[-153.274471231452,58.7612611968209]]],[[[-153.356678283231,58.8285486581542],[-153.357234404378,58.8288394050466],[-153.35681629641,58.8288675151095],[-153.356678283231,58.8285486581542]]],[[[-153.356893797268,58.8303580929885],[-153.356616259069,58.8299949250582],[-153.358151924688,58.8294338998607],[-153.359818629428,58.8308210995005],[-153.356893797268,58.8303580929885]]],[[[-153.294500973007,58.8380811871163],[-153.293581636141,58.8382539732465],[-153.293720351034,58.8380785932377],[-153.294500973007,58.8380811871163]]],[[[-153.253310201073,58.8442703490652],[-153.253450687302,58.844674328014],[-153.252697536247,58.8445324101413],[-153.253310201073,58.8442703490652]]],[[[-153.314293126606,58.8507334471186],[-153.313988465911,58.8512417881289],[-153.313456805728,58.8508928362369],[-153.314293126606,58.8507334471186]]],[[[-153.332370464503,58.8516949462396],[-153.33253782253,58.8517528462093],[-153.331701408611,58.8518402213329],[-153.332370464503,58.8516949462396]]],[[[-153.317281275031,58.851655701587],[-153.317394310193,58.8519431515484],[-153.314631006038,58.8515007420101],[-153.317281275031,58.851655701587]]],[[[-153.339311617036,58.8530553320617],[-153.339673349116,58.8532159859937],[-153.338501850158,58.8532144601759],[-153.339311617036,58.8530553320617]]],[[[-153.251503726278,58.8583351143225],[-153.252201720445,58.8586671081898],[-153.251644131507,58.8587397152712],[-153.251503726278,58.8583351143225]]],[[[-153.337606651971,58.859745898838],[-153.338331845954,58.8597612907241],[-153.338190331201,58.8601801527155],[-153.337606651971,58.859745898838]]],[[[-153.335203647718,58.8608840861283],[-153.33617851665,58.8608280909809],[-153.33531712694,58.8612741680822],[-153.335203647718,58.8608840861283]]],[[[-153.255363738507,58.862422904425],[-153.25542014263,58.8626395724004],[-153.254805684527,58.8624231715117],[-153.255363738507,58.862422904425]]],[[[-153.352568516927,58.8640709551968],[-153.351815146988,58.8641278933098],[-153.35198292994,58.8640558862889],[-153.352568516927,58.8640709551968]]],[[[-153.292833476265,58.8781459594547],[-153.293783891465,58.8785497612775],[-153.292135081215,58.8780165605727],[-153.292833476265,58.8781459594547]]],[[[-153.327188754362,58.9011462844341],[-153.328417880333,58.9011736822409],[-153.327386108573,58.9015217683759],[-153.327188754362,58.9011462844341]]],[[[-153.324273158226,58.9230896882851],[-153.323853905225,58.9230612943524],[-153.3242721681,58.9228728923011],[-153.324273158226,58.9230896882851]]],[[[-153.375689708046,58.9294661408186],[-153.375856762158,58.9296687457778],[-153.375465384172,58.9296683388387],[-153.375689708046,58.9294661408186]]],[[[-153.380736966822,58.9414233481579],[-153.381183711924,58.9416261530735],[-153.380987585007,58.9417560850945],[-153.380736966822,58.9414233481579]]],[[[-153.381499579178,58.9558047559861],[-153.381973972346,58.956122938889],[-153.381218184475,58.956295755994],[-153.381499579178,58.9558047559861]]],[[[-153.398607191985,58.9702716792628],[-153.39843778027,58.9707483452543],[-153.398018734159,58.9705312863355],[-153.398607191985,58.9702716792628]]],[[[-153.399473011308,58.9708792780835],[-153.399892376368,58.9710096670086],[-153.399304604415,58.971052541097],[-153.399473011308,58.9708792780835]]],[[[-153.399555981507,58.9712262690451],[-153.400059370548,58.9713277339593],[-153.399303541643,58.9714428840685],[-153.399555981507,58.9712262690451]]],[[[-153.438453115203,58.9749063327184],[-153.438508915277,58.9750364797002],[-153.437781005338,58.9750939328093],[-153.438453115203,58.9749063327184]]],[[[-153.378575835658,59.0060639407607],[-153.379282195973,59.0049376827332],[-153.378051935746,59.0044734859588],[-153.380015633387,59.0039847346887],[-153.380083811014,59.0016434718495],[-153.384573346005,59.0002043392555],[-153.395652150285,59.0030951453174],[-153.393594533867,59.0056651514496],[-153.376314947951,59.0081284699618],[-153.375271592263,59.0068869512153],[-153.378575835658,59.0060639407607]]],[[[-153.687369181603,59.0738406986308],[-153.688212381714,59.0740856284812],[-153.687595047806,59.0742018275688],[-153.687369181603,59.0738406986308]]],[[[-153.686503829437,59.0752000976648],[-153.686983232732,59.0757344275504],[-153.686365219723,59.0756770936511],[-153.686503829437,59.0752000976648]]],[[[-153.759781644314,59.0765494671398],[-153.759837372354,59.0766218031257],[-153.75935997139,59.0766500851981],[-153.759781644314,59.0765494671398]]],[[[-153.766543587524,59.0773678230247],[-153.766627349563,59.0774402060062],[-153.76620617858,59.077439617072],[-153.766543587524,59.0773678230247]]],[[[-153.75694182391,59.0773694845215],[-153.757081779973,59.077485277491],[-153.756744392028,59.0775570685383],[-153.75694182391,59.0773694845215]]],[[[-153.760768222808,59.075755884045],[-153.752387173734,59.0733598105299],[-153.747611978208,59.0738402242386],[-153.748664624652,59.071266089266],[-153.754240636441,59.0678848806484],[-153.771581045328,59.0688762808717],[-153.785316245173,59.072953873427],[-153.788250181927,59.0761368157325],[-153.792372620376,59.077182003012],[-153.786837657199,59.0782018847988],[-153.760768222808,59.075755884045]]],[[[-153.704619586854,59.0839250131923],[-153.705907977359,59.0831720090473],[-153.704808783817,59.0821760142926],[-153.707505221827,59.0823754298574],[-153.707518842836,59.0789934891065],[-153.702656658292,59.0777414939576],[-153.707709647038,59.0776492241766],[-153.712828984123,59.0798398822156],[-153.725210461554,59.0797092872947],[-153.728755386286,59.0811932856317],[-153.717296225343,59.080513893469],[-153.714779175746,59.0827282166969],[-153.730292835759,59.0854980880719],[-153.720213265406,59.0859156276127],[-153.704619586854,59.0839250131923]]],[[[-153.74260976818,59.0887476729096],[-153.741121858317,59.0888798101317],[-153.741879581218,59.0887630720223],[-153.74260976818,59.0887476729096]]],[[[-153.875206095261,59.1081805287821],[-153.87543008335,59.1083456597348],[-153.874915995497,59.108559850799],[-153.875206095261,59.1081805287821]]],[[[-153.873439902605,59.1086411850231],[-153.870169452426,59.1081097055729],[-153.871326358068,59.1075830904318],[-153.874660108381,59.108344932855],[-153.873439902605,59.1086411850231]]],[[[-153.877802314565,59.1088761783252],[-153.877675890249,59.1083315443856],[-153.879921814129,59.108283838039],[-153.877802314565,59.1088761783252]]],[[[-153.868580343916,59.1173078961328],[-153.868893340081,59.1176106540614],[-153.867633943408,59.1180773222229],[-153.868580343916,59.1173078961328]]],[[[-153.872012461888,59.1174991085832],[-153.873981618872,59.1176083392679],[-153.870303391234,59.1179676028147],[-153.872012461888,59.1174991085832]]]]}}],"hazard":"quake-buffer","attribution":"USGS Earthquake Hazards Program · NPS boundaries","generatedAt":"2026-10-08T06:15:12Z","version":"v1"}